{
    "links": {
        "self": "http://www.neowsapp.com/rest/v1/neo/3344171?api_key=iIulBulltgU6a56xZRHN4H3l9WmuAYTsLGpBGhQ2"
    },
    "id": "3344171",
    "neo_reference_id": "3344171",
    "name": "(2006 SO77)",
    "designation": "2006 SO77",
    "nasa_jpl_url": "http://ssd.jpl.nasa.gov/sbdb.cgi?sstr=3344171",
    "absolute_magnitude_h": 26.5,
    "estimated_diameter": {
        "kilometers": {
            "estimated_diameter_min": 0.0133215567,
            "estimated_diameter_max": 0.0297879063
        },
        "meters": {
            "estimated_diameter_min": 13.3215566698,
            "estimated_diameter_max": 29.7879062798
        },
        "miles": {
            "estimated_diameter_min": 0.008277629,
            "estimated_diameter_max": 0.0185093411
        },
        "feet": {
            "estimated_diameter_min": 43.7058959846,
            "estimated_diameter_max": 97.7293544391
        }
    },
    "is_potentially_hazardous_asteroid": false,
    "close_approach_data": [
        {
            "close_approach_date": "1953-10-25",
            "close_approach_date_full": "1953-Oct-25 11:48",
            "epoch_date_close_approach": -510754320000,
            "relative_velocity": {
                "kilometers_per_second": "19.1021448967",
                "kilometers_per_hour": "68767.7216281891",
                "miles_per_hour": "42729.5879194712"
            },
            "miss_distance": {
                "astronomical": "0.3712896705",
                "lunar": "144.4316818245",
                "kilometers": "55544143.859801835",
                "miles": "34513530.580801923"
            },
            "orbiting_body": "Earth"
        },
        {
            "close_approach_date": "2006-09-21",
            "close_approach_date_full": "2006-Sep-21 22:26",
            "epoch_date_close_approach": 1158877560000,
            "relative_velocity": {
                "kilometers_per_second": "8.7823659757",
                "kilometers_per_hour": "31616.5175125056",
                "miles_per_hour": "19645.2744510344"
            },
            "miss_distance": {
                "astronomical": "0.0057538885",
                "lunar": "2.2382626265",
                "kilometers": "860769.463817495",
                "miles": "534857.343151631"
            },
            "orbiting_body": "Moon"
        },
        {
            "close_approach_date": "2006-09-22",
            "close_approach_date_full": "2006-Sep-22 05:04",
            "epoch_date_close_approach": 1158901440000,
            "relative_velocity": {
                "kilometers_per_second": "7.9945667487",
                "kilometers_per_hour": "28780.4402951661",
                "miles_per_hour": "17883.0463600714"
            },
            "miss_distance": {
                "astronomical": "0.0040945511",
                "lunar": "1.5927803779",
                "kilometers": "612536.123166157",
                "miles": "380612.2977086866"
            },
            "orbiting_body": "Earth"
        },
        {
            "close_approach_date": "2011-06-22",
            "close_approach_date_full": "2011-Jun-22 04:39",
            "epoch_date_close_approach": 1308717540000,
            "relative_velocity": {
                "kilometers_per_second": "19.527366821",
                "kilometers_per_hour": "70298.5205555042",
                "miles_per_hour": "43680.7668418354"
            },
            "miss_distance": {
                "astronomical": "0.387959719",
                "lunar": "150.916330691",
                "kilometers": "58037947.60819853",
                "miles": "36063108.375178514"
            },
            "orbiting_body": "Earth"
        }
    ],
    "orbital_data": {
        "orbit_id": "8",
        "orbit_determination_date": "2017-04-06 09:08:04",
        "first_observation_date": "2006-09-25",
        "last_observation_date": "2006-09-26",
        "data_arc_in_days": 1,
        "observations_used": 23,
        "orbit_uncertainty": "7",
        "minimum_orbit_intersection": ".00234593",
        "jupiter_tisserand_invariant": "3.910",
        "epoch_osculation": "2459000.5",
        "eccentricity": ".4628793695233996",
        "semi_major_axis": "1.817642151887119",
        "inclination": "2.145387529163503",
        "ascending_node_longitude": "354.5553944632648",
        "orbital_period": "895.0782524813227",
        "perihelion_distance": ".9762930986024539",
        "perihelion_argument": "339.8699346527086",
        "aphelion_distance": "2.658991205171784",
        "perihelion_time": "2459352.653855770632",
        "mean_anomaly": "218.3639053613663",
        "mean_motion": ".4021994713892482",
        "equinox": "J2000",
        "orbit_class": {
            "orbit_class_type": "APO",
            "orbit_class_description": "Near-Earth asteroid orbits which cross the Earth’s orbit similar to that of 1862 Apollo",
            "orbit_class_range": "a (semi-major axis) > 1.0 AU; q (perihelion) < 1.017 AU"
        }
    },
    "is_sentry_object": false
}